{"fetched_at":"2026-07-20T18:29:43.706Z","source":"https://celestrak.org/NORAD/elements/gp.php?NAME=SENTINEL&FORMAT=JSON","constellation":"sentinel-3","records":[{"OBJECT_NAME":"SENTINEL-3A","OBJECT_ID":"2016-011A","EPOCH":"2026-07-20T05:56:42.616608","CLASSIFICATION_TYPE":"U","MEAN_MOTION":14.26740662,"ECCENTRICITY":0.0001313,"INCLINATION":98.6233,"RA_OF_ASC_NODE":268.1538,"ARG_OF_PERICENTER":89.0056,"MEAN_ANOMALY":271.1275,"EPHEMERIS_TYPE":0,"NORAD_CAT_ID":41335,"ELEMENT_SET_NO":999,"REV_AT_EPOCH":54277,"BSTAR":0.00003368566,"MEAN_MOTION_DOT":3.8e-7,"MEAN_MOTION_DDOT":0},{"OBJECT_NAME":"SENTINEL-3B","OBJECT_ID":"2018-039A","EPOCH":"2026-07-20T03:37:03.853920","CLASSIFICATION_TYPE":"U","MEAN_MOTION":14.26737265,"ECCENTRICITY":0.00012512,"INCLINATION":98.6232,"RA_OF_ASC_NODE":268.2072,"ARG_OF_PERICENTER":118.9743,"MEAN_ANOMALY":241.1563,"EPHEMERIS_TYPE":0,"NORAD_CAT_ID":43437,"ELEMENT_SET_NO":999,"REV_AT_EPOCH":42882,"BSTAR":0.000034871425,"MEAN_MOTION_DOT":4.1e-7,"MEAN_MOTION_DDOT":0}]}
